NORAD_CAT_ID,OBJECT_NAME,OBJECT_TYPE,EPOCH,MEAN_MOTION,ECCENTRICITY,INCLINATION,RA_OF_ASC_NODE,ARG_OF_PERICENTER,MEAN_ANOMALY,BSTAR,MEAN_MOTION_DOT,MEAN_MOTION_DDOT,TLE_LINE0,TLE_LINE1,TLE_LINE2,SEMIMAJOR_AXIS,PERIOD,APOGEE,PERIGEE,DECAYED
51127.0,STARLINK-3370,PAYLOAD,2024-03-18 20:43:33,15.08841598,0.0001341,53.2174,295.0496,80.723,279.3914,5.5443e-05,5.95e-06,0.0,0 STARLINK-3370,1 51127U 22005Z   24078.86358617  .00000595  00000-0  55443-4 0  9994,2 51127  53.2174 295.0496 0001341  80.7230 279.3914 15.08841598121035,6917.876,95.437,540.668,538.813,0.0
51127.0,STARLINK-3370,PAYLOAD,2024-03-19 20:34:21,15.08830438,0.0001304,53.2178,290.5894,68.4174,291.6957,-0.00010843,-2.013e-05,0.0,0 STARLINK-3370,1 51127U 22005Z   24079.85719115 -.00002013  00000-0 -10843-3 0  9991,2 51127  53.2178 290.5894 0001304  68.4174 291.6957 15.08830438121181,6917.91,95.438,540.677,538.873,0.0
51127.0,STARLINK-3370,PAYLOAD,2024-03-20 14:03:36,15.08833942,0.0001389,53.2178,287.3122,54.9246,305.1876,-0.00014296,-2.562e-05,0.0,0 STARLINK-3370,1 51127U 22005Z   24080.58583491 -.00002562  00000-0 -14296-3 0  9994,2 51127  53.2178 287.3122 0001389  54.9246 305.1876 15.08833942120174,6917.899,95.438,540.725,538.803,0.0
51127.0,STARLINK-3370,PAYLOAD,2024-03-20 20:25:08,15.08834624,0.0001167,53.2174,286.125,85.6002,274.5124,-9.5959e-05,-1.814e-05,0.0,0 STARLINK-3370,1 51127U 22005Z   24080.85079233 -.00001814  00000-0 -95959-4 0  9993,2 51127  53.2174 286.1250 0001167  85.6002 274.5124 15.08834624120212,6917.897,95.438,540.569,538.955,0.0
51127.0,STARLINK-3370,PAYLOAD,2024-03-20 23:35:58,15.08781501,0.0001668,53.2191,285.5235,60.2818,299.834,-0.00057608,-9.43e-05,0.0,0 STARLINK-3370,1 51127U 22005Z   24080.98332051 -.00009430  00000-0 -57608-3 0  9997,2 51127  53.2191 285.5235 0001668  60.2818 299.8340 15.08781501121358,6918.059,95.441,541.078,538.77,0.0
51127.0,STARLINK-3370,PAYLOAD,2024-03-21 12:19:01,15.08829877,9.36e-05,53.2172,283.1471,51.9817,308.126,-0.00031918,-5.362e-05,0.0,0 STARLINK-3370,1 51127U 22005Z   24081.51321103 -.00005362  00000-0 -31918-3 0  9999,2 51127  53.2172 283.1471 0000936  51.9817 308.1260 15.08829877121439,6917.911,95.438,540.424,539.129,0.0
51127.0,STARLINK-3370,PAYLOAD,2024-03-21 13:54:24,15.08835854,0.0001969,53.2161,282.8533,45.0379,315.0772,-0.00021346,-3.683e-05,0.0,0 STARLINK-3370,1 51127U 22005Z   24081.57944499 -.00003683  00000-0 -21346-3 0  9992,2 51127  53.2161 282.8533 0001969  45.0379 315.0772 15.08835854120320,6917.893,95.438,541.12,538.396,0.0
51127.0,STARLINK-3370,PAYLOAD,2024-03-21 17:05:09,15.08845977,0.0001381,53.2175,282.2568,49.0936,311.0176,-9.0682e-05,-1.731e-05,0.0,0 STARLINK-3370,1 51127U 22005Z   24081.71191562 -.00001731  00000-0 -90682-4 0  9995,2 51127  53.2175 282.2568 0001381  49.0936 311.0176 15.08845977121465,6917.862,95.437,540.682,538.772,0.0
51127.0,STARLINK-3370,PAYLOAD,2024-03-22 13:45:09,15.08846121,0.0001151,53.2162,278.3878,130.5195,229.5897,0.00023802,3.503e-05,0.0,0 STARLINK-3370,1 51127U 22005Z   24082.57302858  .00003503  00000-0  23802-3 0  9998,2 51127  53.2162 278.3878 0001151 130.5195 229.5897 15.08846121120474,6917.862,95.437,540.523,538.93,0.0
51127.0,STARLINK-3370,PAYLOAD,2024-03-22 20:06:42,15.0886063,0.0001137,53.2168,277.203,108.0679,252.0437,0.00057617,8.899e-05,0.0,0 STARLINK-3370,1 51127U 22005Z   24082.83798886  .00008899  00000-0  57617-3 0  9991,2 51127  53.2168 277.2030 0001137 108.0679 252.0437 15.08860630121630,6917.817,95.436,540.469,538.896,0.0
51127.0,STARLINK-3370,PAYLOAD,2024-03-23 13:35:56,15.08848752,0.0001376,53.2156,273.9287,128.2638,231.8478,3.1414e-05,2.12e-06,0.0,0 STARLINK-3370,1 51127U 22005Z   24083.56663161  .00000212  00000-0  31414-4 0  9998,2 51127  53.2156 273.9287 0001376 128.2638 231.8478 15.08848752121741,6917.854,95.437,540.671,538.767,0.0
51127.0,STARLINK-3370,PAYLOAD,2024-03-23 19:57:29,15.08850437,0.000112,53.2162,272.7419,114.3151,245.7958,1.2303e-05,-9.2e-07,0.0,0 STARLINK-3370,1 51127U 22005Z   24083.83159028 -.00000092  00000-0  12303-4 0  9993,2 51127  53.2162 272.7419 0001120 114.3151 245.7958 15.08850437120665,6917.848,95.437,540.488,538.939,0.0
51127.0,STARLINK-3370,PAYLOAD,2024-03-24 05:29:48,15.0884763,9.97e-05,53.2161,270.9556,91.5963,268.5143,-7.6245e-05,-1.501e-05,0.0,0 STARLINK-3370,1 51127U 22005Z   24084.22902972 -.00001501  00000-0 -76245-4 0  9993,2 51127  53.2161 270.9556 0000997  91.5963 268.5143 15.08847630120721,6917.857,95.437,540.412,539.032,0.0
51127.0,STARLINK-3370,PAYLOAD,2024-03-24 19:48:16,15.08857143,9.33e-05,53.2162,268.2798,99.8597,260.2501,0.00032375,4.871e-05,0.0,0 STARLINK-3370,1 51127U 22005Z   24084.82518776  .00004871  00000-0  32375-3 0  9990,2 51127  53.2162 268.2798 0000933  99.8597 260.2501 15.08857143121935,6917.828,95.436,540.338,539.048,0.0
51127.0,STARLINK-3370,PAYLOAD,2024-03-25 05:20:35,15.08845628,9.23e-05,53.216,266.4963,97.4746,262.6351,0.00022502,3.296e-05,0.0,0 STARLINK-3370,1 51127U 22005Z   24085.22263145  .00003296  00000-0  22502-3 0  9993,2 51127  53.2160 266.4963 0000923  97.4746 262.6351 15.08845628121996,6917.863,95.437,540.367,539.09,0.0
51127.0,STARLINK-3370,PAYLOAD,2024-03-25 19:39:02,15.08876396,7.72e-05,53.2165,263.8197,100.4756,259.6323,0.00086922,0.00013587,0.0,0 STARLINK-3370,1 51127U 22005Z   24085.81878182  .00013587  00000-0  86922-3 0  9991,2 51127  53.2165 263.8197 0000772 100.4756 259.6323 15.08876396122081,6917.769,95.435,540.168,539.1,0.0
51127.0,STARLINK-3370,PAYLOAD,2024-03-26 05:11:22,15.08843191,9.31e-05,53.2175,262.0342,105.2755,254.834,0.00016936,2.409e-05,0.0,0 STARLINK-3370,1 51127U 22005Z   24086.21623333  .00002409  00000-0  16936-3 0  9991,2 51127  53.2175 262.0342 0000931 105.2755 254.8340 15.08843191122144,6917.871,95.437,540.38,539.092,0.0
51127.0,STARLINK-3370,PAYLOAD,2024-03-26 11:32:55,15.08838683,9.89e-05,53.2157,260.8461,107.6273,252.4827,0.00014002,1.941e-05,0.0,0 STARLINK-3370,1 51127U 22005Z   24086.48119638  .00001941  00000-0  14002-3 0  9990,2 51127  53.2157 260.8461 0000989 107.6273 252.4827 15.08838683121060,6917.884,95.438,540.434,539.065,0.0
51127.0,STARLINK-3370,PAYLOAD,2024-03-26 17:54:27,15.0883944,0.0001035,53.2154,259.6578,97.8811,262.2298,0.00012655,1.727e-05,0.0,0 STARLINK-3370,1 51127U 22005Z   24086.74615668  .00001727  00000-0  12655-3 0  9997,2 51127  53.2154 259.6578 0001035  97.8811 262.2298 15.08839440121101,6917.882,95.438,540.463,539.031,0.0
51127.0,STARLINK-3370,PAYLOAD,2024-03-27 05:02:10,15.08835617,0.0001123,53.217,257.5752,101.7539,258.358,1.0095e-05,-1.27e-06,0.0,0 STARLINK-3370,1 51127U 22005Z   24087.20983879 -.00000127  00000-0  10095-4 0  9992,2 51127  53.2170 257.5752 0001123 101.7539 258.3580 15.08835617122293,6917.894,95.438,540.536,538.982,0.0
51127.0,STARLINK-3370,PAYLOAD,2024-03-27 14:34:29,15.08822404,9.62e-05,53.2145,255.7915,78.1531,281.9569,-0.00015147,-2.696e-05,0.0,0 STARLINK-3370,1 51127U 22005Z   24087.60728949 -.00002696  00000-0 -15147-3 0  9997,2 51127  53.2145 255.7915 0000962  78.1531 281.9569 15.08822404121237,6917.934,95.439,540.465,539.134,0.0
51127.0,STARLINK-3370,PAYLOAD,2024-03-27 17:45:16,15.0882467,9.46e-05,53.2146,255.1964,79.8259,280.2839,-0.0001032,-1.929e-05,0.0,0 STARLINK-3370,1 51127U 22005Z   24087.73976958 -.00001929  00000-0 -10320-3 0  9992,2 51127  53.2146 255.1964 0000946  79.8259 280.2839 15.08824670122378,6917.927,95.439,540.447,539.138,0.0
51127.0,STARLINK-3370,PAYLOAD,2024-03-28 11:14:30,15.08840871,9.74e-05,53.2157,251.9233,84.703,275.4073,0.00023631,3.475e-05,0.0,0 STARLINK-3370,1 51127U 22005Z   24088.46840643  .00003475  00000-0  23631-3 0  9999,2 51127  53.2157 251.9233 0000974  84.7030 275.4073 15.08840871122485,6917.878,95.437,540.417,539.069,0.0
51127.0,STARLINK-3370,PAYLOAD,2024-03-29 09:29:52,15.08868465,8.1e-05,53.2187,247.7644,43.0448,317.0607,0.00048436,7.435e-05,0.0,0 STARLINK-3370,1 51127U 22005Z   24089.39575173  .00007435  00000-0  48436-3 0  9995,2 51127  53.2187 247.7644 0000810  43.0448 317.0607 15.08868465122628,6917.793,95.436,540.219,539.098,0.0
51127.0,STARLINK-3370,PAYLOAD,2024-03-29 20:37:35,15.08853611,0.0001479,53.2156,245.6827,76.0067,284.109,0.00029344,4.387e-05,0.0,0 STARLINK-3370,1 51127U 22005Z   24089.85943611  .00004387  00000-0  29344-3 0  9992,2 51127  53.2156 245.6827 0001479  76.0067 284.1090 15.08853611122693,6917.839,95.437,540.727,538.681,0.0
51127.0,STARLINK-3370,PAYLOAD,2024-03-30 02:59:08,15.08838678,0.0001853,53.2182,244.4924,80.0314,280.0887,-9.0839e-05,-1.734e-05,0.0,0 STARLINK-3370,1 51127U 22005Z   24090.12440296 -.00001734  00000-0 -90839-4 0  9998,2 51127  53.2182 244.4924 0001853  80.0314 280.0887 15.08838678122733,6917.884,95.438,541.031,538.468,0.0
51127.0,STARLINK-3370,PAYLOAD,2024-03-30 09:20:40,15.08846195,0.0001411,53.2134,243.3013,69.4817,290.6326,-8.7042e-05,-1.673e-05,0.0,0 STARLINK-3370,1 51127U 22005Z   24090.38935553 -.00001673  00000-0 -87042-4 0  9995,2 51127  53.2134 243.3013 0001411  69.4817 290.6326 15.08846195122778,6917.861,95.437,540.703,538.75,0.0
51127.0,STARLINK-3370,PAYLOAD,2024-03-30 14:06:49,15.08841784,7.35e-05,53.2157,242.4115,77.7282,282.3793,-0.00015929,-2.822e-05,0.0,0 STARLINK-3370,1 51127U 22005Z   24090.58807517 -.00002822  00000-0 -15929-3 0  9996,2 51127  53.2157 242.4115 0000735  77.7282 282.3793 15.08841784121686,6917.875,95.437,540.248,539.231,0.0
51127.0,STARLINK-3370,PAYLOAD,2024-03-30 17:17:36,15.08844838,7.85e-05,53.2145,241.8174,73.1587,286.9491,-7.812e-05,-1.531e-05,0.0,0 STARLINK-3370,1 51127U 22005Z   24090.72055589 -.00001531  00000-0 -78120-4 0  9995,2 51127  53.2145 241.8174 0000785  73.1587 286.9491 15.08844838121705,6917.866,95.437,540.274,539.188,0.0
51127.0,STARLINK-3370,PAYLOAD,2024-03-31 13:57:36,15.08843756,0.0001061,53.2164,237.9525,70.2644,289.8462,-6.7253e-05,-1.358e-05,0.0,0 STARLINK-3370,1 51127U 22005Z   24091.58167449 -.00001358  00000-0 -67253-4 0  9991,2 51127  53.2164 237.9525 0001061  70.2644 289.8462 15.08843756121834,6917.869,95.437,540.468,539.0,0.0
